{
    "links": {
        "self": "http://www.neowsapp.com/rest/v1/neo/3826855?api_key=iIulBulltgU6a56xZRHN4H3l9WmuAYTsLGpBGhQ2"
    },
    "id": "3826855",
    "neo_reference_id": "3826855",
    "name": "(2018 PW23)",
    "designation": "2018 PW23",
    "nasa_jpl_url": "http://ssd.jpl.nasa.gov/sbdb.cgi?sstr=3826855",
    "absolute_magnitude_h": 22.6,
    "estimated_diameter": {
        "kilometers": {
            "estimated_diameter_min": 0.0802703167,
            "estimated_diameter_max": 0.1794898848
        },
        "meters": {
            "estimated_diameter_min": 80.2703167283,
            "estimated_diameter_max": 179.4898847799
        },
        "miles": {
            "estimated_diameter_min": 0.049877647,
            "estimated_diameter_max": 0.1115298092
        },
        "feet": {
            "estimated_diameter_min": 263.3540659348,
            "estimated_diameter_max": 588.8775935812
        }
    },
    "is_potentially_hazardous_asteroid": false,
    "close_approach_data": [
        {
            "close_approach_date": "1986-08-23",
            "close_approach_date_full": "1986-Aug-23 06:18",
            "epoch_date_close_approach": 525161880000,
            "relative_velocity": {
                "kilometers_per_second": "2.7554387372",
                "kilometers_per_hour": "9919.5794539579",
                "miles_per_hour": "6163.6409112662"
            },
            "miss_distance": {
                "astronomical": "0.272903333",
                "lunar": "106.159396537",
                "kilometers": "40825757.33270071",
                "miles": "25367949.279101398"
            },
            "orbiting_body": "Earth"
        },
        {
            "close_approach_date": "2018-06-29",
            "close_approach_date_full": "2018-Jun-29 04:09",
            "epoch_date_close_approach": 1530245340000,
            "relative_velocity": {
                "kilometers_per_second": "6.2046381704",
                "kilometers_per_hour": "22336.6974135854",
                "miles_per_hour": "13879.1551234581"
            },
            "miss_distance": {
                "astronomical": "0.0601720323",
                "lunar": "23.4069205647",
                "kilometers": "9001607.865651201",
                "miles": "5593339.7611045338"
            },
            "orbiting_body": "Mars"
        },
        {
            "close_approach_date": "2018-08-20",
            "close_approach_date_full": "2018-Aug-20 08:51",
            "epoch_date_close_approach": 1534755060000,
            "relative_velocity": {
                "kilometers_per_second": "2.6821805791",
                "kilometers_per_hour": "9655.8500847606",
                "miles_per_hour": "5999.7697373891"
            },
            "miss_distance": {
                "astronomical": "0.2821796499",
                "lunar": "109.7678838111",
                "kilometers": "42213474.582385713",
                "miles": "26230236.7932523194"
            },
            "orbiting_body": "Earth"
        },
        {
            "close_approach_date": "2050-08-15",
            "close_approach_date_full": "2050-Aug-15 10:41",
            "epoch_date_close_approach": 2544172860000,
            "relative_velocity": {
                "kilometers_per_second": "2.7497898266",
                "kilometers_per_hour": "9899.2433756395",
                "miles_per_hour": "6151.0048630466"
            },
            "miss_distance": {
                "astronomical": "0.3176507819",
                "lunar": "123.5661541591",
                "kilometers": "47519880.376074553",
                "miles": "29527484.4580447114"
            },
            "orbiting_body": "Earth"
        }
    ],
    "orbital_data": {
        "orbit_id": "6",
        "orbit_determination_date": "2018-10-06 06:29:59",
        "first_observation_date": "2018-08-12",
        "last_observation_date": "2018-10-01",
        "data_arc_in_days": 50,
        "observations_used": 32,
        "orbit_uncertainty": "6",
        "minimum_orbit_intersection": ".274581",
        "jupiter_tisserand_invariant": "3.424",
        "epoch_osculation": "2459000.5",
        "eccentricity": ".4520095433756247",
        "semi_major_axis": "2.330279629253836",
        "inclination": "4.157824644228641",
        "ascending_node_longitude": "279.8034294264586",
        "orbital_period": "1299.303130731951",
        "perihelion_distance": "1.27697099809729",
        "perihelion_argument": "54.10477941008538",
        "aphelion_distance": "3.383588260410382",
        "perihelion_time": "2458362.478169186832",
        "mean_anomaly": "176.7777308158626",
        "mean_motion": ".2770716020650216",
        "equinox": "J2000",
        "orbit_class": {
            "orbit_class_type": "AMO",
            "orbit_class_description": "Near-Earth asteroid orbits similar to that of 1221 Amor",
            "orbit_class_range": "1.017 AU < q (perihelion) < 1.3 AU"
        }
    },
    "is_sentry_object": false
}